OBJECT_NAME,OBJECT_ID,EPOCH,MEAN_MOTION,ECCENTRICITY,INCLINATION,RA_OF_ASC_NODE,ARG_OF_PERICENTER,MEAN_ANOMALY,EPHEMERIS_TYPE,CLASSIFICATION_TYPE,NORAD_CAT_ID,ELEMENT_SET_NO,REV_AT_EPOCH,BSTAR,MEAN_MOTION_DOT,MEAN_MOTION_DDOT
IRIDIUM 113,2017-039A,2026-05-09T12:27:07.148736,14.34217577,.0002185,86.3975,338.3493,92.7960,267.3486,0,U,42803,999,46564,.42478E-4,.139E-5,0
NORSAT 2,2017-042D,2026-05-09T10:08:50.097984,15.21149709,.000985,97.4030,303.5072,180.2484,179.8749,0,U,42828,999,48184,.43599E-3,.9658E-4,0
TECHNOSAT,2017-042E,2026-05-09T11:35:18.011040,15.04719652,.0016635,97.4243,288.6312,222.1084,137.8866,0,U,42829,999,48088,.1186E-3,.1615E-4,0
FLYING LAPTOP,2017-042G,2026-05-09T12:29:34.855584,15.00891893,.0017685,97.4522,286.5890,254.9908,104.9360,0,U,42831,999,48065,.19724E-3,.2461E-4,0
WNISAT 1R,2017-042L,2026-05-09T10:39:13.252032,15.01582859,.0010732,97.4788,286.9644,298.3346,61.6796,0,U,42835,999,48069,.1744E-3,.2205E-4,0
LEMUR-2-GREENBERG,2017-042N,2026-05-09T10:50:41.396928,15.30131568,.001013,97.3818,310.2962,137.9928,222.2091,0,U,42837,999,48246,.47932E-3,.13932E-3,0
LEMUR-2-FURIAUS,2017-042R,2026-05-09T11:35:05.629056,15.28983718,.0007485,97.3772,308.3716,191.2676,168.8397,0,U,42840,999,48229,.55188E-3,.15487E-3,0
CORVUS BC2,2017-042X,2026-05-09T09:30:36.728352,15.06048696,.0011958,97.4038,292.2700,241.8841,118.1179,0,U,42846,999,48122,.20813E-3,.2982E-4,0
CORVUS BC1,2017-042Y,2026-05-09T09:29:11.792832,15.06221332,.0011149,97.4070,293.0577,215.5186,144.5301,0,U,42847,999,48125,.21672E-3,.3122E-4,0
VRSS-2,2017-060A,2026-05-09T13:04:44.584608,14.81134121,.0015866,97.6543,169.0078,222.5569,137.4416,0,U,42954,999,46273,.17393E-3,.1304E-4,0
MOHAMMED VI-A,2017-070A,2026-05-09T12:43:39.202176,14.77088609,.0001303,97.9561,202.3902,103.0639,257.0716,0,U,43005,999,45827,.74834E-4,.478E-5,0
FENGYUN 3D,2017-072A,2026-05-09T12:38:57.429312,14.19731297,.0002024,99.0112,103.2567,127.5421,232.5938,0,U,43010,999,43950,.17617E-4,-.9E-7,0
NOAA 20 (JPSS-1),2017-073A,2026-05-09T10:41:15.807840,14.19550397,.000185,98.7756,69.2558,54.9121,305.2228,0,U,43013,999,43897,.44817E-4,.5E-6,0
MAKERSAT 0,2017-073D,2026-05-09T04:01:25.554432,15.30445615,.01122968,97.4679,11.4219,52.5361,308.6029,0,U,43016,999,46049,.54474812E-3,.19438E-3,0
RADFXSAT (FOX-1B),2017-073E,2026-05-09T04:06:50.569632,15.12007537,.01541387,97.4763,357.1981,103.1814,258.6665,0,U,43017,999,45949,.36021444E-3,.8199E-4,0
JILIN-1 04,2017-074A,2026-05-09T12:54:25.151040,15.41479084,.0003307,97.4814,238.1605,354.1204,6.0003,0,U,43022,999,46831,.22764E-3,.945E-4,0
JILIN-1 05,2017-074B,2026-05-09T11:50:08.604096,15.33283105,.0005435,97.4821,235.1516,22.0075,338.1400,0,U,43023,999,46807,.20283E-3,.6444E-4,0
JILIN-1 06,2017-074C,2026-05-09T12:39:54.683136,15.33265526,.0007432,97.4752,232.2390,29.0999,331.0655,0,U,43024,999,46791,.13116E-3,.4137E-4,0
IRIDIUM 116,2017-083C,2026-05-09T11:50:36.093120,14.34220810,.0002153,86.3967,338.1856,78.1355,282.0082,0,U,43072,999,43862,.56011E-4,.177E-5,0
IRIDIUM 130,2017-083D,2026-05-09T12:45:23.199264,14.34217651,.0002218,86.3972,338.4410,81.8699,278.2749,0,U,43073,999,43857,-.8301E-6,.17E-6,0
LKW-2,2017-084A,2026-05-09T12:55:42.674304,15.25835564,.0003067,97.1221,171.1504,55.2315,304.9213,0,U,43080,999,46579,.28959E-3,.7343E-4,0
SUPERVIEW-1 03,2018-002A,2026-05-09T11:15:40.018752,15.38094847,.0046746,97.3124,214.4047,321.6047,38.1874,0,U,43099,999,46241,.26872E-3,.10374E-3,0
CARTOSAT-2F,2018-004A,2026-05-09T11:30:50.832864,15.19192493,.0002265,97.4238,189.5104,62.6093,297.5372,0,U,43111,999,46145,.21213E-3,.4396E-4,0
LKW-3,2018-006A,2026-05-09T12:33:49.514400,15.34505335,.000421,97.6580,288.6208,87.4570,272.7154,0,U,43146,999,46278,.25094E-3,.8306E-4,0
ASNARO-2,2018-007A,2026-05-09T12:55:10.250976,15.22408174,.0001779,97.3996,137.0660,91.0513,269.0928,0,U,43152,999,46153,.29195E-3,.6678E-4,0
JILIN-1 07,2018-008E,2026-05-09T11:38:58.673184,15.34086411,.0008168,97.1803,150.4612,183.5342,176.5845,0,U,43159,999,45906,.19242E-3,.6276E-4,0
JILIN-1 08,2018-008F,2026-05-09T12:39:37.586304,15.33207309,.0005529,97.1831,149.8556,193.9319,166.1772,0,U,43160,999,45902,.16755E-3,.5301E-4,0
LEMUR-2-KADI,2018-014E,2026-05-09T08:01:08.400000,15.83123549,.0005592,97.4493,58.2185,103.3555,256.8337,0,U,43184,999,45491,.12618E-2,.277609E-2,0
