IRIDIUM 113             
1 42803U 17039A   26129.51883274  .00000139  00000+0  42478-4 0  9996
2 42803  86.3975 338.3493 0002185  92.7960 267.3486 14.34217577465641
NORSAT 2                
1 42828U 17042D   26129.42280206  .00009658  00000+0  43599-3 0  9992
2 42828  97.4030 303.5072 0009850 180.2484 179.8749 15.21149709481847
TECHNOSAT               
1 42829U 17042E   26129.48284735  .00001615  00000+0  11860-3 0  9991
2 42829  97.4243 288.6312 0016635 222.1084 137.8866 15.04719652480883
FLYING LAPTOP           
1 42831U 17042G   26129.52054231  .00002461  00000+0  19724-3 0  9992
2 42831  97.4522 286.5890 0017685 254.9908 104.9360 15.00891893480651
WNISAT 1R               
1 42835U 17042L   26129.44390338  .00002205  00000+0  17440-3 0  9997
2 42835  97.4788 286.9644 0010732 298.3346  61.6796 15.01582859480690
LEMUR-2-GREENBERG       
1 42837U 17042N   26129.45186802  .00013932  00000+0  47932-3 0  9997
2 42837  97.3818 310.2962 0010130 137.9928 222.2091 15.30131568482464
LEMUR-2-FURIAUS         
1 42840U 17042R   26129.48270404  .00015487  00000+0  55188-3 0  9995
2 42840  97.3772 308.3716 0007485 191.2676 168.8397 15.28983718482298
CORVUS BC2              
1 42846U 17042X   26129.39625843  .00002982  00000+0  20813-3 0  9995
2 42846  97.4038 292.2700 0011958 241.8841 118.1179 15.06048696481221
CORVUS BC1              
1 42847U 17042Y   26129.39527538  .00003122  00000+0  21672-3 0  9999
2 42847  97.4070 293.0577 0011149 215.5186 144.5301 15.06221332481254
VRSS-2                  
1 42954U 17060A   26129.54496047  .00001304  00000+0  17393-3 0  9990
2 42954  97.6543 169.0078 0015866 222.5569 137.4416 14.81134121462732
MOHAMMED VI-A           
1 43005U 17070A   26129.53031484  .00000478  00000+0  74834-4 0  9993
2 43005  97.9561 202.3902 0001303 103.0639 257.0716 14.77088609458272
FENGYUN 3D              
1 43010U 17072A   26129.52705358 -.00000009  00000+0  17617-4 0  9995
2 43010  99.0112 103.2567 0002024 127.5421 232.5938 14.19731297439503
NOAA 20 (JPSS-1)        
1 43013U 17073A   26129.44532185  .00000050  00000+0  44817-4 0  9993
2 43013  98.7756  69.2558 0001850  54.9121 305.2228 14.19550397438973
MAKERSAT 0              
1 43016U 17073D   26129.16765688  .00019438  00000+0  54475-3 0  9991
2 43016  97.4679  11.4219 0112296  52.5361 308.6029 15.30445615460494
RADFXSAT (FOX-1B)       
1 43017U 17073E   26129.17141863  .00008199  00000+0  36021-3 0  9995
2 43017  97.4763 357.1981 0154138 103.1814 258.6665 15.12007537459497
JILIN-1 04              
1 43022U 17074A   26129.53779110  .00009450  00000+0  22764-3 0  9994
2 43022  97.4814 238.1605 0003307 354.1204   6.0003 15.41479084468317
JILIN-1 05              
1 43023U 17074B   26129.49315514  .00006444  00000+0  20283-3 0  9998
2 43023  97.4821 235.1516 0005435  22.0075 338.1400 15.33283105468076
JILIN-1 06              
1 43024U 17074C   26129.52771624  .00004137  00000+0  13116-3 0  9995
2 43024  97.4752 232.2390 0007432  29.0999 331.0655 15.33265526467912
IRIDIUM 116             
1 43072U 17083C   26129.49347330  .00000177  00000+0  56011-4 0  9999
2 43072  86.3967 338.1856 0002153  78.1355 282.0082 14.34220810438621
IRIDIUM 130             
1 43073U 17083D   26129.53151851  .00000017  00000+0 -83010-6 0  9991
2 43073  86.3972 338.4410 0002218  81.8699 278.2749 14.34217651438571
LKW-2                   
1 43080U 17084A   26129.53868836  .00007343  00000+0  28959-3 0  9994
2 43080  97.1221 171.1504 0003067  55.2315 304.9213 15.25835564465792
SUPERVIEW-1 03          
1 43099U 18002A   26129.46921318  .00010374  00000+0  26872-3 0  9992
2 43099  97.3124 214.4047 0046746 321.6047  38.1874 15.38094847462412
CARTOSAT-2F             
1 43111U 18004A   26129.47975501  .00004396  00000+0  21213-3 0  9994
2 43111  97.4238 189.5104 0002265  62.6093 297.5372 15.19192493461453
LKW-3                   
1 43146U 18006A   26129.52348975  .00008306  00000+0  25094-3 0  9995
2 43146  97.6580 288.6208 0004210  87.4570 272.7154 15.34505335462786
ASNARO-2                
1 43152U 18007A   26129.53831309  .00006678  00000+0  29195-3 0  9998
2 43152  97.3996 137.0660 0001779  91.0513 269.0928 15.22408174461535
JILIN-1 07              
1 43159U 18008E   26129.48540131  .00006276  00000+0  19242-3 0  9996
2 43159  97.1803 150.4612 0008168 183.5342 176.5845 15.34086411459063
JILIN-1 08              
1 43160U 18008F   26129.52751836  .00005301  00000+0  16755-3 0  9993
2 43160  97.1831 149.8556 0005529 193.9319 166.1772 15.33207309459022
LEMUR-2-KADI            
1 43184U 18014E   26129.33412500  .00277609  00000+0  12618-2 0  9992
2 43184  97.4493  58.2185 0005592 103.3555 256.8337 15.83123549454918
